[Satellite]
VERSION=1.1
NAME=STARLINK-1340
NICKNAME=STARLINK-1340
TLE1=1 45583U 20025BE  20142.08334491  .00015525  00000-0  17512-3 0  9992
TLE2=2 45583  52.9984 259.6907 0000928  92.5755 172.5033 15.62743849  5155
STATUS=0
